ALOS (DAICHI)           
1 28931U 06002A   26045.42422610  .00001576  00000+0  27265-3 0  9992
2 28931  98.1178   1.5039 0001883  60.1143 300.0249 14.69731906 70069
H-2A R/B                
1 28932U 06002B   26045.37804407  .00008143  00000+0  41419-3 0  9999
2 28932  98.2364 190.4140 0052474 321.6513  38.0991 15.15935142 90904
RESURS-DK 1             
1 29228U 06021A   26045.45702384  .00002495  00000+0  14864-3 0  9997
2 29228  69.9339 297.1162 0004007 196.3596 163.7441 15.12608415 84014
CZ-4B R/B               
1 29507U 06046C   26045.12340879  .00005150  00000+0  26320-3 0  9996
2 29507  97.5648  90.0944 0033090 352.1224   7.9485 15.16647786 56470
CZ-2C R/B               
1 31114U 07010B   26045.33641302  .00000118  00000+0  73325-4 0  9990
2 31114  98.3971 159.7875 0058963   3.3092 356.8464 14.20237909976408
COSMO-SKYMED 1          
1 31598U 07023A   26045.52858617  .00004011  00000+0  35965-3 0  9993
2 31598  97.8853 236.3781 0001142  94.4299 265.7052 14.96347099 11442
COSMOS 2428             
1 31792U 07029A   26045.03070678  .00000285  00000+0  17850-3 0  9996
2 31792  70.9397 253.0067 0007703 303.5715  56.4670 14.12936449960751
SL-16 R/B               
1 31793U 07029B   26045.43715838  .00000175  00000+0  11531-3 0  9993
2 31793  70.9743 221.2609 0002246 282.1993 101.1775 14.14835806962082
KORONAS-FOTON           
1 33504U 09003A   26045.15858094  .00013564  00000+0  30954-3 0  9996
2 33504  82.4317 300.3292 0009095 237.7803 122.2563 15.42702726942118
CZ-2C R/B               
1 37731U 11030B   26045.45033120  .00001761  00000+0  22785-3 0  9992
2 37731  97.8504   3.1876 0054130  66.6109  47.2796 14.81129967786657
H-2A R/B                
1 38341U 12025E   26045.43783516  .00004329  00000+0  39452-3 0  9996
2 38341  98.4681  10.6345 0045449  30.6514 329.7345 14.94957610744746
SHIJIAN-16 (SJ-16)      
1 39358U 13057A   26045.56677828  .00000868  00000+0  87710-4 0  9998
2 39358  74.9702 228.8590 0016550 170.6883 189.4616 14.92253260668057
