CCSDS_OMM_VERS = 2.0
CREATION_DATE  = 
ORIGINATOR     = 

OBJECT_NAME    = ALOS (DAICHI)
OBJECT_ID      = 2006-002A
CENTER_NAME    = EARTH
REF_FRAME      = TEME
TIME_SYSTEM    = UTC
MEAN_ELEMENT_THEORY = SGP/SGP4

EPOCH          = 2026-02-14T10:10:53.135040
MEAN_MOTION    = 14.69731906
ECCENTRICITY   = .0001883
INCLINATION    = 98.1178
RA_OF_ASC_NODE = 1.5039
ARG_OF_PERICENTER = 60.1143
MEAN_ANOMALY   = 300.0249

EPHEMERIS_TYPE = 0
CLASSIFICATION_TYPE = U
NORAD_CAT_ID   = 28931
ELEMENT_SET_NO = 999
REV_AT_EPOCH   = 7006
BSTAR          = .27265E-3
MEAN_MOTION_DOT = .1576E-4
MEAN_MOTION_DDOT = 0

CCSDS_OMM_VERS = 2.0
CREATION_DATE  = 
ORIGINATOR     = 

OBJECT_NAME    = H-2A R/B
OBJECT_ID      = 2006-002B
CENTER_NAME    = EARTH
REF_FRAME      = TEME
TIME_SYSTEM    = UTC
MEAN_ELEMENT_THEORY = SGP/SGP4

EPOCH          = 2026-02-14T09:04:23.007648
MEAN_MOTION    = 15.15935142
ECCENTRICITY   = .0052474
INCLINATION    = 98.2364
RA_OF_ASC_NODE = 190.4140
ARG_OF_PERICENTER = 321.6513
MEAN_ANOMALY   = 38.0991

EPHEMERIS_TYPE = 0
CLASSIFICATION_TYPE = U
NORAD_CAT_ID   = 28932
ELEMENT_SET_NO = 999
REV_AT_EPOCH   = 9090
BSTAR          = .41419E-3
MEAN_MOTION_DOT = .8143E-4
MEAN_MOTION_DDOT = 0

CCSDS_OMM_VERS = 2.0
CREATION_DATE  = 
ORIGINATOR     = 

OBJECT_NAME    = RESURS-DK 1
OBJECT_ID      = 2006-021A
CENTER_NAME    = EARTH
REF_FRAME      = TEME
TIME_SYSTEM    = UTC
MEAN_ELEMENT_THEORY = SGP/SGP4

EPOCH          = 2026-02-14T10:58:06.859776
MEAN_MOTION    = 15.12608415
ECCENTRICITY   = .0004007
INCLINATION    = 69.9339
RA_OF_ASC_NODE = 297.1162
ARG_OF_PERICENTER = 196.3596
MEAN_ANOMALY   = 163.7441

EPHEMERIS_TYPE = 0
CLASSIFICATION_TYPE = U
NORAD_CAT_ID   = 29228
ELEMENT_SET_NO = 999
REV_AT_EPOCH   = 8401
BSTAR          = .14864E-3
MEAN_MOTION_DOT = .2495E-4
MEAN_MOTION_DDOT = 0

CCSDS_OMM_VERS = 2.0
CREATION_DATE  = 
ORIGINATOR     = 

OBJECT_NAME    = CZ-4B R/B
OBJECT_ID      = 2006-046C
CENTER_NAME    = EARTH
REF_FRAME      = TEME
TIME_SYSTEM    = UTC
MEAN_ELEMENT_THEORY = SGP/SGP4

EPOCH          = 2026-02-14T02:57:42.519456
MEAN_MOTION    = 15.16647786
ECCENTRICITY   = .00330902
INCLINATION    = 97.5648
RA_OF_ASC_NODE = 90.0944
ARG_OF_PERICENTER = 352.1224
MEAN_ANOMALY   = 7.9485

EPHEMERIS_TYPE = 0
CLASSIFICATION_TYPE = U
NORAD_CAT_ID   = 29507
ELEMENT_SET_NO = 999
REV_AT_EPOCH   = 5647
BSTAR          = .26320132E-3
MEAN_MOTION_DOT = .515E-4
MEAN_MOTION_DDOT = 0

CCSDS_OMM_VERS = 2.0
CREATION_DATE  = 
ORIGINATOR     = 

OBJECT_NAME    = CZ-2C R/B
OBJECT_ID      = 2007-010B
CENTER_NAME    = EARTH
REF_FRAME      = TEME
TIME_SYSTEM    = UTC
MEAN_ELEMENT_THEORY = SGP/SGP4

EPOCH          = 2026-02-14T08:04:26.084928
MEAN_MOTION    = 14.20237909
ECCENTRICITY   = .0058963
INCLINATION    = 98.3971
RA_OF_ASC_NODE = 159.7875
ARG_OF_PERICENTER = 3.3092
MEAN_ANOMALY   = 356.8464

EPHEMERIS_TYPE = 0
CLASSIFICATION_TYPE = U
NORAD_CAT_ID   = 31114
ELEMENT_SET_NO = 999
REV_AT_EPOCH   = 97640
BSTAR          = .73325E-4
MEAN_MOTION_DOT = .118E-5
MEAN_MOTION_DDOT = 0

CCSDS_OMM_VERS = 2.0
CREATION_DATE  = 
ORIGINATOR     = 

OBJECT_NAME    = COSMO-SKYMED 1
OBJECT_ID      = 2007-023A
CENTER_NAME    = EARTH
REF_FRAME      = TEME
TIME_SYSTEM    = UTC
MEAN_ELEMENT_THEORY = SGP/SGP4

EPOCH          = 2026-02-14T12:41:09.845088
MEAN_MOTION    = 14.96347099
ECCENTRICITY   = .0001142
INCLINATION    = 97.8853
RA_OF_ASC_NODE = 236.3781
ARG_OF_PERICENTER = 94.4299
MEAN_ANOMALY   = 265.7052

EPHEMERIS_TYPE = 0
CLASSIFICATION_TYPE = U
NORAD_CAT_ID   = 31598
ELEMENT_SET_NO = 999
REV_AT_EPOCH   = 1144
BSTAR          = .35965E-3
MEAN_MOTION_DOT = .4011E-4
MEAN_MOTION_DDOT = 0

CCSDS_OMM_VERS = 2.0
CREATION_DATE  = 
ORIGINATOR     = 

OBJECT_NAME    = COSMOS 2428
OBJECT_ID      = 2007-029A
CENTER_NAME    = EARTH
REF_FRAME      = TEME
TIME_SYSTEM    = UTC
MEAN_ELEMENT_THEORY = SGP/SGP4

EPOCH          = 2026-02-14T00:44:13.065792
MEAN_MOTION    = 14.12936449
ECCENTRICITY   = .00077037
INCLINATION    = 70.9397
RA_OF_ASC_NODE = 253.0067
ARG_OF_PERICENTER = 303.5715
MEAN_ANOMALY   = 56.4670

EPHEMERIS_TYPE = 0
CLASSIFICATION_TYPE = U
NORAD_CAT_ID   = 31792
ELEMENT_SET_NO = 999
REV_AT_EPOCH   = 96075
BSTAR          = .17850309E-3
MEAN_MOTION_DOT = .285E-5
MEAN_MOTION_DDOT = 0

CCSDS_OMM_VERS = 2.0
CREATION_DATE  = 
ORIGINATOR     = 

OBJECT_NAME    = SL-16 R/B
OBJECT_ID      = 2007-029B
CENTER_NAME    = EARTH
REF_FRAME      = TEME
TIME_SYSTEM    = UTC
MEAN_ELEMENT_THEORY = SGP/SGP4

EPOCH          = 2026-02-14T10:29:30.484032
MEAN_MOTION    = 14.14835806
ECCENTRICITY   = .0002246
INCLINATION    = 70.9743
RA_OF_ASC_NODE = 221.2609
ARG_OF_PERICENTER = 282.1993
MEAN_ANOMALY   = 101.1775

EPHEMERIS_TYPE = 0
CLASSIFICATION_TYPE = U
NORAD_CAT_ID   = 31793
ELEMENT_SET_NO = 999
REV_AT_EPOCH   = 96208
BSTAR          = .11531E-3
MEAN_MOTION_DOT = .175E-5
MEAN_MOTION_DDOT = 0

CCSDS_OMM_VERS = 2.0
CREATION_DATE  = 
ORIGINATOR     = 

OBJECT_NAME    = KORONAS-FOTON
OBJECT_ID      = 2009-003A
CENTER_NAME    = EARTH
REF_FRAME      = TEME
TIME_SYSTEM    = UTC
MEAN_ELEMENT_THEORY = SGP/SGP4

EPOCH          = 2026-02-14T03:48:21.393216
MEAN_MOTION    = 15.42702726
ECCENTRICITY   = .0009095
INCLINATION    = 82.4317
RA_OF_ASC_NODE = 300.3292
ARG_OF_PERICENTER = 237.7803
MEAN_ANOMALY   = 122.2563

EPHEMERIS_TYPE = 0
CLASSIFICATION_TYPE = U
NORAD_CAT_ID   = 33504
ELEMENT_SET_NO = 999
REV_AT_EPOCH   = 94211
BSTAR          = .30954E-3
MEAN_MOTION_DOT = .13564E-3
MEAN_MOTION_DDOT = 0

CCSDS_OMM_VERS = 2.0
CREATION_DATE  = 
ORIGINATOR     = 

OBJECT_NAME    = CZ-2C R/B
OBJECT_ID      = 2011-030B
CENTER_NAME    = EARTH
REF_FRAME      = TEME
TIME_SYSTEM    = UTC
MEAN_ELEMENT_THEORY = SGP/SGP4

EPOCH          = 2026-02-14T10:48:28.615680
MEAN_MOTION    = 14.81129967
ECCENTRICITY   = .005413
INCLINATION    = 97.8504
RA_OF_ASC_NODE = 3.1876
ARG_OF_PERICENTER = 66.6109
MEAN_ANOMALY   = 47.2796

EPHEMERIS_TYPE = 0
CLASSIFICATION_TYPE = U
NORAD_CAT_ID   = 37731
ELEMENT_SET_NO = 999
REV_AT_EPOCH   = 78665
BSTAR          = .22785E-3
MEAN_MOTION_DOT = .1761E-4
MEAN_MOTION_DDOT = 0

CCSDS_OMM_VERS = 2.0
CREATION_DATE  = 
ORIGINATOR     = 

OBJECT_NAME    = H-2A R/B
OBJECT_ID      = 2012-025E
CENTER_NAME    = EARTH
REF_FRAME      = TEME
TIME_SYSTEM    = UTC
MEAN_ELEMENT_THEORY = SGP/SGP4

EPOCH          = 2026-02-14T10:30:28.957824
MEAN_MOTION    = 14.94957610
ECCENTRICITY   = .0045449
INCLINATION    = 98.4681
RA_OF_ASC_NODE = 10.6345
ARG_OF_PERICENTER = 30.6514
MEAN_ANOMALY   = 329.7345

EPHEMERIS_TYPE = 0
CLASSIFICATION_TYPE = U
NORAD_CAT_ID   = 38341
ELEMENT_SET_NO = 999
REV_AT_EPOCH   = 74474
BSTAR          = .39452E-3
MEAN_MOTION_DOT = .4329E-4
MEAN_MOTION_DDOT = 0

CCSDS_OMM_VERS = 2.0
CREATION_DATE  = 
ORIGINATOR     = 

OBJECT_NAME    = SHIJIAN-16 (SJ-16)
OBJECT_ID      = 2013-057A
CENTER_NAME    = EARTH
REF_FRAME      = TEME
TIME_SYSTEM    = UTC
MEAN_ELEMENT_THEORY = SGP/SGP4

EPOCH          = 2026-02-14T13:36:09.643392
MEAN_MOTION    = 14.92253260
ECCENTRICITY   = .001655
INCLINATION    = 74.9702
RA_OF_ASC_NODE = 228.8590
ARG_OF_PERICENTER = 170.6883
MEAN_ANOMALY   = 189.4616

EPHEMERIS_TYPE = 0
CLASSIFICATION_TYPE = U
NORAD_CAT_ID   = 39358
ELEMENT_SET_NO = 999
REV_AT_EPOCH   = 66805
BSTAR          = .8771E-4
MEAN_MOTION_DOT = .868E-5
MEAN_MOTION_DDOT = 0

